sat29126
1 29126U 85108Q   20046.82887754  .00013507  00000-0  24976-3 0  9990
2 29126  82.5641 187.1769 0003481 230.3158 129.7786 15.48895597754888
